[Satellite]
VERSION=1.1
NAME=GCOM-W1 (SHIZUKU)
NICKNAME=GCOM-W1 (SHIZUKU)
TLE1=1 38337U 12025A   19316.92551927  .00000049  00000-0  20839-4 0  9993
TLE2=2 38337  98.2088 254.9752 0000184  38.7613   1.2481 14.57097732398322
STATUS=0
